start=new Date('2022-09-10T00:00:00.000Z').valueOf();
sats=[{"MEAN_MOTION":"15.01263622","DECAY_DATE":null,"MEAN_ELEMENT_THEORY":"SGP4","ARG_OF_PERICENTER":"103.8264","RCS_SIZE":"LARGE","RA_OF_ASC_NODE":"313.0011","TIME_SYSTEM":"UTC","TLE_LINE1":"1 53196U 22084H   22252.91667824 -.00008797  00000-0 -68111-3 0  9999","PERIOD":"95.919","TLE_LINE2":"2 53196  97.6556 313.0011 0001950 103.8264 268.5700 15.01263622  1302","REV_AT_EPOCH":"130","SEMIMAJOR_AXIS":"6941.136","MEAN_MOTION_DOT":"-0.00008797","NORAD_CAT_ID":"53196","APOAPSIS":"564.354","BSTAR":"-0.00068111000000","ELEMENT_SET_NO":"999","OBJECT_TYPE":"PAYLOAD","OBJECT_NAME":"STARLINK-4407","MEAN_MOTION_DDOT":"0.0000000000000","ECCENTRICITY":"0.00019500","COUNTRY_CODE":"US","GP_ID":"212169662","MEAN_ANOMALY":"268.5700","FILE":"3565505","CENTER_NAME":"EARTH","LAUNCH_DATE":"2022-07-22","INCLINATION":"97.6556","EPHEMERIS_TYPE":"0","SITE":"AFWTR","REF_FRAME":"TEME","OBJECT_ID":"2022-084H","EPOCH":"2022-09-09T22:00:00.999936","PERIAPSIS":"561.647","CLASSIFICATION_TYPE":"U"},{"MEAN_MOTION_DOT":"-0.00009335","NORAD_CAT_ID":"53197","REV_AT_EPOCH":"130","SEMIMAJOR_AXIS":"6941.181","TLE_LINE1":"1 53197U 22084J   22252.91667824 -.00009335  00000-0 -72332-3 0  9999","PERIOD":"95.920","TLE_LINE2":"2 53197  97.6557 312.9960 0001747  99.3115 304.4556 15.01249030  1309","TIME_SYSTEM":"UTC","ARG_OF_PERICENTER":"99.3115","RCS_SIZE":"LARGE","RA_OF_ASC_NODE":"312.9960","DECAY_DATE":null,"MEAN_ELEMENT_THEORY":"SGP4","MEAN_MOTION":"15.01249030","OBJECT_NAME":"STARLINK-4403","OBJECT_TYPE":"PAYLOAD","BSTAR":"-0.00072332000000","ELEMENT_SET_NO":"999","APOAPSIS":"564.258","FILE":"3565505","CENTER_NAME":"EARTH","MEAN_ANOMALY":"304.4556","GP_ID":"212170381","ECCENTRICITY":"0.00017470","COUNTRY_CODE":"US","MEAN_MOTION_DDOT":"0.0000000000000","CLASSIFICATION_TYPE":"U","PERIAPSIS":"561.833","EPOCH":"2022-09-09T22:00:00.999936","OBJECT_ID":"2022-084J","REF_FRAME":"TEME","SITE":"AFWTR","EPHEMERIS_TYPE":"0","LAUNCH_DATE":"2022-07-22","INCLINATION":"97.6557"},{"BSTAR":"-0.00420430000000","ELEMENT_SET_NO":"999","OBJECT_NAME":"STARLINK-4385","OBJECT_TYPE":"PAYLOAD","APOAPSIS":"564.238","TLE_LINE1":"1 53198U 22084K   22252.91667824 -.00053688  00000-0 -42043-2 0  9995","PERIOD":"95.918","TLE_LINE2":"2 53198  97.6560 312.9945 0001879 103.4757 280.2922 15.01285482  1301","MEAN_MOTION_DOT":"-0.00053688","NORAD_CAT_ID":"53198","REV_AT_EPOCH":"130","SEMIMAJOR_AXIS":"6941.068","DECAY_DATE":null,"MEAN_ELEMENT_THEORY":"SGP4","MEAN_MOTION":"15.01285482","TIME_SYSTEM":"UTC","ARG_OF_PERICENTER":"103.4757","RA_OF_ASC_NODE":"312.9945","RCS_SIZE":"LARGE","EPOCH":"2022-09-09T22:00:00.999936","CLASSIFICATION_TYPE":"U","PERIAPSIS":"561.629","REF_FRAME":"TEME","SITE":"AFWTR","INCLINATION":"97.6560","LAUNCH_DATE":"2022-07-22","EPHEMERIS_TYPE":"0","OBJECT_ID":"2022-084K","MEAN_ANOMALY":"280.2922","CENTER_NAME":"EARTH","FILE":"3565505","ECCENTRICITY":"0.00018790","COUNTRY_CODE":"US","MEAN_MOTION_DDOT":"0.0000000000000","GP_ID":"212169925"},{"BSTAR":"-0.00090103000000","ELEMENT_SET_NO":"999","OBJECT_NAME":"STARLINK-4395","OBJECT_TYPE":"PAYLOAD","APOAPSIS":"564.337","TLE_LINE1":"1 53199U 22084L   22252.91667824 -.00011613  00000-0 -90103-3 0  9999","PERIOD":"95.920","TLE_LINE2":"2 53199  97.6561 312.9953 0001904 105.5942 308.1884 15.01258776  1303","MEAN_MOTION_DOT":"-0.00011613","NORAD_CAT_ID":"53199","REV_AT_EPOCH":"130","SEMIMAJOR_AXIS":"6941.151","MEAN_ELEMENT_THEORY":"SGP4","DECAY_DATE":null,"MEAN_MOTION":"15.01258776","TIME_SYSTEM":"UTC","ARG_OF_PERICENTER":"105.5942","RA_OF_ASC_NODE":"312.9953","RCS_SIZE":"LARGE","EPOCH":"2022-09-09T22:00:00.999936","CLASSIFICATION_TYPE":"U","PERIAPSIS":"561.694","REF_FRAME":"TEME","SITE":"AFWTR","INCLINATION":"97.6561","LAUNCH_DATE":"2022-07-22","EPHEMERIS_TYPE":"0","OBJECT_ID":"2022-084L","MEAN_ANOMALY":"308.1884","CENTER_NAME":"EARTH","FILE":"3565505","ECCENTRICITY":"0.00019040","COUNTRY_CODE":"US","MEAN_MOTION_DDOT":"0.0000000000000","GP_ID":"212169815"},{"APOAPSIS":"564.268","ELEMENT_SET_NO":"999","BSTAR":"-0.00075669000000","OBJECT_TYPE":"PAYLOAD","OBJECT_NAME":"STARLINK-4417","MEAN_MOTION":"15.01263774","MEAN_ELEMENT_THEORY":"SGP4","DECAY_DATE":null,"RCS_SIZE":"LARGE","RA_OF_ASC_NODE":"312.9948","ARG_OF_PERICENTER":"98.7090","TIME_SYSTEM":"UTC","TLE_LINE2":"2 53200  97.6558 312.9948 0001826  98.7090 295.0258 15.01263774  1309","PERIOD":"95.919","TLE_LINE1":"1 53200U 22084M   22252.91667824 -.00009766  00000-0 -75669-3 0  9998","REV_AT_EPOCH":"130","SEMIMAJOR_AXIS":"6941.135","NORAD_CAT_ID":"53200","MEAN_MOTION_DOT":"-0.00009766","EPHEMERIS_TYPE":"0","LAUNCH_DATE":"2022-07-22","INCLINATION":"97.6558","REF_FRAME":"TEME","SITE":"AFWTR","OBJECT_ID":"2022-084M","EPOCH":"2022-09-09T22:00:00.999936","PERIAPSIS":"561.733","CLASSIFICATION_TYPE":"U","MEAN_MOTION_DDOT":"0.0000000000000","COUNTRY_CODE":"US","ECCENTRICITY":"0.00018260","GP_ID":"212170078","MEAN_ANOMALY":"295.0258","FILE":"3565505","CENTER_NAME":"EARTH"},{"PERIAPSIS":"561.414","CLASSIFICATION_TYPE":"U","EPOCH":"2022-09-09T22:00:00.999936","OBJECT_ID":"2022-084N","LAUNCH_DATE":"2022-07-22","INCLINATION":"97.6554","EPHEMERIS_TYPE":"0","REF_FRAME":"TEME","SITE":"AFWTR","FILE":"3565505","CENTER_NAME":"EARTH","MEAN_ANOMALY":"338.8816","GP_ID":"212170576","MEAN_MOTION_DDOT":"0.0000000000000","ECCENTRICITY":"0.00021840","COUNTRY_CODE":"US","OBJECT_TYPE":"PAYLOAD","OBJECT_NAME":"STARLINK-4405","BSTAR":"-0.00174120000000","ELEMENT_SET_NO":"999","APOAPSIS":"564.445","SEMIMAJOR_AXIS":"6941.064","REV_AT_EPOCH":"130","MEAN_MOTION_DOT":"-0.00022369","NORAD_CAT_ID":"53201","TLE_LINE1":"1 53201U 22084N   22252.91667824 -.00022369  00000-0 -17412-2 0  9994","PERIOD":"95.918","TLE_LINE2":"2 53201  97.6554 312.9949 0002184  94.8303 338.8816 15.01286723  1304","ARG_OF_PERICENTER":"94.8303","RA_OF_ASC_NODE":"312.9949","RCS_SIZE":"LARGE","TIME_SYSTEM":"UTC","MEAN_MOTION":"15.01286723","MEAN_ELEMENT_THEORY":"SGP4","DECAY_DATE":null},{"APOAPSIS":"524.434","BSTAR":"-0.07285500000000","ELEMENT_SET_NO":"999","OBJECT_TYPE":"PAYLOAD","OBJECT_NAME":"STARLINK-4411","MEAN_MOTION":"15.14334849","DECAY_DATE":null,"MEAN_ELEMENT_THEORY":"SGP4","RCS_SIZE":"LARGE","RA_OF_ASC_NODE":"313.3240","ARG_OF_PERICENTER":"106.9189","TIME_SYSTEM":"UTC","PERIOD":"95.091","TLE_LINE2":"2 53202  97.6556 313.3240 0002077 106.9189  78.3450 15.14334849  1301","TLE_LINE1":"1 53202U 22084P   22252.91667824 -.01222780  00000-0 -72855-1 0  9996","REV_AT_EPOCH":"130","SEMIMAJOR_AXIS":"6901.136","NORAD_CAT_ID":"53202","MEAN_MOTION_DOT":"-0.01222780","LAUNCH_DATE":"2022-07-22","INCLINATION":"97.6556","EPHEMERIS_TYPE":"0","SITE":"AFWTR","REF_FRAME":"TEME","OBJECT_ID":"2022-084P","EPOCH":"2022-09-09T22:00:00.999936","PERIAPSIS":"521.567","CLASSIFICATION_TYPE":"U","MEAN_MOTION_DDOT":"0.0000000000000","COUNTRY_CODE":"US","ECCENTRICITY":"0.00020770","GP_ID":"212169511","MEAN_ANOMALY":"78.3450","FILE":"3565505","CENTER_NAME":"EARTH"},{"TLE_LINE1":"1 53203U 22084Q   22252.91667824 -.00008142  00000-0 -63025-3 0  9991","TLE_LINE2":"2 53203  97.6546 312.9946 0002006 117.8428 335.8763 15.01245329  1306","PERIOD":"95.920","MEAN_MOTION_DOT":"-0.00008142","NORAD_CAT_ID":"53203","SEMIMAJOR_AXIS":"6941.192","REV_AT_EPOCH":"130","DECAY_DATE":null,"MEAN_ELEMENT_THEORY":"SGP4","MEAN_MOTION":"15.01245329","TIME_SYSTEM":"UTC","ARG_OF_PERICENTER":"117.8428","RA_OF_ASC_NODE":"312.9946","RCS_SIZE":"LARGE","BSTAR":"-0.00063025000000","ELEMENT_SET_NO":"999","OBJECT_NAME":"STARLINK-4409","OBJECT_TYPE":"PAYLOAD","APOAPSIS":"564.449","MEAN_ANOMALY":"335.8763","CENTER_NAME":"EARTH","FILE":"3565505","ECCENTRICITY":"0.00020060","COUNTRY_CODE":"US","MEAN_MOTION_DDOT":"0.0000000000000","GP_ID":"212170231","EPOCH":"2022-09-09T22:00:00.999936","CLASSIFICATION_TYPE":"U","PERIAPSIS":"561.665","SITE":"AFWTR","REF_FRAME":"TEME","LAUNCH_DATE":"2022-07-22","INCLINATION":"97.6546","EPHEMERIS_TYPE":"0","OBJECT_ID":"2022-084Q"},{"OBJECT_ID":"2022-084R","EPHEMERIS_TYPE":"0","LAUNCH_DATE":"2022-07-22","INCLINATION":"97.6549","SITE":"AFWTR","REF_FRAME":"TEME","PERIAPSIS":"561.362","CLASSIFICATION_TYPE":"U","EPOCH":"2022-09-09T22:00:00.999936","GP_ID":"212169663","MEAN_MOTION_DDOT":"0.0000000000000","ECCENTRICITY":"0.00023370","COUNTRY_CODE":"US","CENTER_NAME":"EARTH","FILE":"3565505","MEAN_ANOMALY":"311.8332","APOAPSIS":"564.606","OBJECT_TYPE":"PAYLOAD","OBJECT_NAME":"STARLINK-4410","BSTAR":"-0.00089547000000","ELEMENT_SET_NO":"999","ARG_OF_PERICENTER":"111.8191","RCS_SIZE":"LARGE","RA_OF_ASC_NODE":"312.9942","TIME_SYSTEM":"UTC","MEAN_MOTION":"15.01269048","MEAN_ELEMENT_THEORY":"SGP4","DECAY_DATE":null,"SEMIMAJOR_AXIS":"6941.119","REV_AT_EPOCH":"130","MEAN_MOTION_DOT":"-0.00011545","NORAD_CAT_ID":"53204","TLE_LINE1":"1 53204U 22084R   22252.91667824 -.00011545  00000-0 -89547-3 0  9990","PERIOD":"95.919","TLE_LINE2":"2 53204  97.6549 312.9942 0002337 111.8191 311.8332 15.01269048  1304"},{"OBJECT_NAME":"STARLINK-4397","OBJECT_TYPE":"PAYLOAD","BSTAR":"-0.00209780000000","ELEMENT_SET_NO":"999","APOAPSIS":"564.278","NORAD_CAT_ID":"53205","MEAN_MOTION_DOT":"-0.00026911","SEMIMAJOR_AXIS":"6941.105","REV_AT_EPOCH":"130","PERIOD":"95.919","TLE_LINE2":"2 53205  97.6546 312.9943 0001883 113.6902   0.0221 15.01273416  1306","TLE_LINE1":"1 53205U 22084S   22252.91667824 -.00026911  00000-0 -20978-2 0  9996","TIME_SYSTEM":"UTC","RA_OF_ASC_NODE":"312.9943","RCS_SIZE":"LARGE","ARG_OF_PERICENTER":"113.6902","MEAN_ELEMENT_THEORY":"SGP4","DECAY_DATE":null,"MEAN_MOTION":"15.01273416","CLASSIFICATION_TYPE":"U","PERIAPSIS":"561.663","EPOCH":"2022-09-09T22:00:00.999936","OBJECT_ID":"2022-084S","REF_FRAME":"TEME","SITE":"AFWTR","LAUNCH_DATE":"2022-07-22","EPHEMERIS_TYPE":"0","INCLINATION":"97.6546","FILE":"3565505","CENTER_NAME":"EARTH","MEAN_ANOMALY":"0.0221","GP_ID":"212170382","COUNTRY_CODE":"US","ECCENTRICITY":"0.00018830","MEAN_MOTION_DDOT":"0.0000000000000"}];
